HAWK-B                  
1 43794U 18099AN  26192.68026757  .00003655  00000+0  15607-3 0  9995
2 43794  97.3953 243.9622 0031043 214.6095 145.3122 15.23089676416760
HAWK-C                  
1 43799U 18099AT  26192.74663767  .00004981  00000+0  17842-3 0  9991
2 43799  97.3882 245.6984 0039957 196.0410 163.9568 15.28455421417662
HAWK-2C                 
1 47502U 21006CT  26192.66634745  .00004059  00000+0  12191-3 0  9992
2 47502  97.2271 236.4900 0008596 110.8364 249.3801 15.34960543303253
HAWK-2A                 
1 47505U 21006CW  26192.66860602  .00004105  00000+0  12322-3 0  9996
2 47505  97.2313 237.1844 0008103 114.0460 246.1633 15.34975584303254
HAWK-3B                 
1 48931U 21059BE  26192.53493957  .00032448  00000+0  25309-3 0  9999
2 48931  97.6639  31.5827 0004168 212.0570 148.0439 15.71629594281671
HAWK-3C                 
1 48948U 21059BX  26192.53462930  .00032017  00000+0  24970-3 0  9999
2 48948  97.6752  37.3098 0004248 211.5765 148.5243 15.71633627281678
HAWK-3A                 
1 48957U 21059CG  26192.53451707  .00032665  00000+0  25471-3 0  9995
2 48957  97.6700  34.4950 0004352 212.7236 147.3758 15.71633774281679
HAWK-6B                 
1 55324U 23011A   26192.51015779  .00002734  00000+0  12152-3 0  9990
2 55324  40.4968 210.1816 0003600 221.4345 138.6192 15.23133888191554
HAWK-6C                 
1 55326U 23011C   26192.50953218  .00002830  00000+0  12549-3 0  9997
2 55326  40.4958 207.0206 0004112 211.7800 148.2762 15.23135553191562
HAWK-6A                 
1 55327U 23011D   26192.50956735  .00002662  00000+0  11852-3 0  9994
2 55327  40.4966 208.6476 0003628 209.4630 150.5976 15.23134269191560
HAWK-7A                 
1 56191U 23054P   26192.74187363  .00003309  00000+0  12527-3 0  9999
2 56191  97.2673  79.4553 0001779 350.0874  10.0330 15.27609969180776
